OBJECT_NAME,OBJECT_ID,OBJECT_TYPE,EPOCH,MEAN_MOTION,ECCENTRICITY,INCLINATION,RA_OF_ASC_NODE,ARG_OF_PERICENTER,MEAN_ANOMALY,EPHEMERIS_TYPE,CLASSIFICATION_TYPE,NORAD_CAT_ID,ELEMENT_SET_NO,REV_AT_EPOCH,BSTAR,MEAN_MOTION_DOT,MEAN_MOTION_DDOT,WEATHER,BRIGHTEST,EARTH_RESOURCES,NAVIGATION,SCIENTIFIC,MISCELLANEOUS,COMMUNICATION,active geosynchronous,constellations,active_geosynchronous
STARLINK-34081,2025-102Y,Sattelite,2026-02-22T16:46:53.630112,14.98334795,0.00032097,70.0019,152.3771,264.3983,95.681,0,U,64044,999,4364,0.00015860029,1.8e-05,0.0,False,False,False,False,False,False,False,False,starlink,
STARLINK-34033,2025-102Z,Sattelite,2026-02-22T16:10:49.291104,14.98321937,0.0003167,70.0018,152.2866,272.9139,87.1658,0,U,64045,999,4363,-0.00041261269,-5.012e-05,0.0,False,False,False,False,False,False,False,False,starlink,
STARLINK-33952,2025-102AA,Sattelite,2026-02-22T15:58:48.660672,14.98331833,0.00032338,70.0017,152.2579,268.7037,91.3752,0,U,64046,999,4370,0.00030665045,3.568e-05,0.0,False,False,False,False,False,False,False,False,starlink,
STARLINK-33961,2025-102AB,Sattelite,2026-02-22T16:23:38.905152,14.96627471,0.00022786,70.0013,152.3183,331.0185,29.0846,0,U,64047,999,4358,-0.054319055,-0.00584302,0.0,False,False,False,False,False,False,False,False,starlink,
TIANYI A,2025-103A,Sattelite,2026-02-22T23:03:13.426848,15.19163792,0.00016808,97.4125,128.6482,88.7372,271.4055,0,U,64048,999,4273,7.6091987e-05,1.532e-05,0.0,False,False,False,False,False,False,False,False,False,
TIANYI B,2025-103B,Sattelite,2026-02-22T22:14:59.430336,15.192195,0.0001731,97.3901,128.2879,181.8993,178.2236,0,U,64049,999,4271,0.00019622485,4.065e-05,0.0,False,False,False,False,False,False,False,False,False,
TIANYI C,2025-103C,Sattelite,2026-02-22T17:28:53.581152,15.1922394,0.00030479,97.3868,127.9318,178.4395,181.685,0,U,64050,999,4268,-5.330698e-06,-1.78e-06,0.0,False,False,False,False,False,False,False,False,False,
TIANYI D,2025-103D,Sattelite,2026-02-22T22:45:28.362816,15.17409563,0.00016272,97.3928,127.9062,198.7595,161.3579,0,U,64051,999,4267,0.00029493785,5.831e-05,0.0,False,False,False,False,False,False,False,False,False,
TIANYI E,2025-103E,Sattelite,2026-02-22T22:27:10.874592,15.21402408,0.00028773,97.3854,128.4218,184.3482,175.7729,0,U,64052,999,4272,0.00059364167,0.00013265,0.0,False,False,False,False,False,False,False,False,False,
TIANYI F,2025-103F,Sattelite,2026-02-22T23:14:54.750336,15.1808017,0.00030932,97.3908,128.1027,177.7027,182.4222,0,U,64053,999,4271,0.00023911793,4.807e-05,0.0,False,False,False,False,False,False,False,False,False,
QPS-SAR-10 (WADATSUMI-I),2025-104A,Sattelite,2026-02-22T19:42:48.030336,15.00604466,0.00125821,42.0035,189.2411,308.4343,51.5353,0,U,64055,999,4224,0.00052195094,6.534e-05,0.0,False,False,False,False,False,False,False,False,False,
TIANQI-16,2025-105A,Sattelite,2026-02-22T17:36:56.682432,13.99106545,0.00119565,44.9832,171.576,199.0092,161.0296,0,U,64058,999,3916,0.00017865295,1.32e-06,0.0,False,False,False,False,False,False,False,False,False,
TIANQI-17,2025-105B,Sattelite,2026-02-22T18:03:16.080480,13.99107494,0.00112483,44.9792,170.8576,202.2325,157.8021,0,U,64059,999,3917,0.00016722191,1.15e-06,0.0,False,False,False,False,False,False,False,False,False,
TIANQI-18,2025-105C,Sattelite,2026-02-22T18:53:02.064480,13.99088565,0.0011387,44.9839,171.1645,209.985,150.0331,0,U,64060,999,3917,0.0001690762,1.18e-06,0.0,False,False,False,False,False,False,False,False,False,
TIANQI-20,2025-105D,Sattelite,2026-02-22T20:09:12.109536,13.99091972,0.00107745,44.9845,170.7492,204.0576,155.9754,0,U,64061,999,3919,0.00017007231,1.19e-06,0.0,False,False,False,False,False,False,False,False,False,
CHINASAT 3B,2025-106A,Sattelite,2026-02-22T22:03:39.742272,1.00271348,0.00025534,0.0187,127.0711,179.4588,344.4925,0,U,64062,999,291,0.0,-4.2e-07,0.0,False,False,False,False,False,False,False,False,False,geo_protected_zone_plus
STARLINK-11741 [DTC],2025-107A,Sattelite,2026-02-22T18:11:25.078560,15.7092571,9.874e-05,42.9998,188.7786,287.1846,72.8914,0,U,64064,999,4494,0.002071461,0.00275335,0.0,False,False,False,False,False,False,False,False,starlink,
STARLINK-11709 [DTC],2025-107B,Sattelite,2026-02-22T19:12:22.939200,15.70960296,0.00029115,42.9992,188.2232,274.5241,85.5294,0,U,64065,999,4495,0.0023006423,0.00307502,0.0,False,False,False,False,False,False,False,False,starlink,
STARLINK-11737 [DTC],2025-107C,Sattelite,2026-02-22T15:46:20.097984,15.70912333,8.26e-05,42.9994,188.8611,169.3312,190.7573,0,U,64066,999,4493,0.0025942,0.00347801,0.0,False,False,False,False,False,False,False,False,starlink,
STARLINK-11726 [DTC],2025-107D,Sattelite,2026-02-22T22:00:01.999584,15.70793395,0.00017672,42.9999,187.1492,279.7182,169.8222,0,U,64067,999,598,0.00093528942,0.00121088,0.0,False,False,False,False,False,False,False,False,starlink,
STARLINK-11700 [DTC],2025-107E,Sattelite,2026-02-22T17:57:26.237376,15.70977717,0.00011964,42.999,188.6992,314.7067,45.3703,0,U,64068,999,4494,0.0028771679,0.00388785,0.0,False,False,False,False,False,False,False,False,starlink,
STARLINK-11649 [DTC],2025-107F,Sattelite,2026-02-22T18:19:03.815904,15.70916082,0.00012516,42.999,188.8195,320.5573,39.5203,0,U,64069,999,4494,0.0018432442,0.00243915,0.0,False,False,False,False,False,False,False,False,starlink,
STARLINK-11713 [DTC],2025-107G,Sattelite,2026-02-22T17:33:11.155104,15.70903558,0.0001381,43.0016,188.562,293.144,66.9282,0,U,64070,999,4494,0.0018546731,0.00245343,0.0,False,False,False,False,False,False,False,False,starlink,
STARLINK-11719 [DTC],2025-107H,Sattelite,2026-02-22T19:27:40.506336,15.70931577,0.00014558,42.9993,188.3067,260.8437,99.2266,0,U,64071,999,4495,0.0016465881,0.0021728,0.0,False,False,False,False,False,False,False,False,starlink,
