STARLINK-34081          
1 64044U 25102Y   26053.69923183  .00001800  00000+0  15860-3 0  9996
2 64044  70.0019 152.3771 0003209 264.3983  95.6810 14.98334795 43641
STARLINK-34033          
1 64045U 25102Z   26053.67418161 -.00005012  00000+0 -41261-3 0  9995
2 64045  70.0018 152.2866 0003167 272.9139  87.1658 14.98321937 43635
STARLINK-33952          
1 64046U 25102AA  26053.66584098  .00003568  00000+0  30665-3 0  9996
2 64046  70.0017 152.2579 0003233 268.7037  91.3752 14.98331833 43706
STARLINK-33961          
1 64047U 25102AB  26053.68308918 -.00584302  00000+0 -54319-1 0  9996
2 64047  70.0013 152.3183 0002278 331.0185  29.0846 14.96627471 43583
TIANYI A                
1 64048U 25103A   26053.96057207  .00001532  00000+0  76092-4 0  9993
2 64048  97.4125 128.6482 0001680  88.7372 271.4055 15.19163792 42737
TIANYI B                
1 64049U 25103B   26053.92707674  .00004065  00000+0  19622-3 0  9999
2 64049  97.3901 128.2879 0001731 181.8993 178.2236 15.19219500 42718
TIANYI C                
1 64050U 25103C   26053.72839793 -.00000178  00000+0 -53307-5 0  9990
2 64050  97.3868 127.9318 0003047 178.4395 181.6850 15.19223940 42685
TIANYI D                
1 64051U 25103D   26053.94824494  .00005831  00000+0  29494-3 0  9994
2 64051  97.3928 127.9062 0001627 198.7595 161.3579 15.17409563 42675
TIANYI E                
1 64052U 25103E   26053.93554253  .00013265  00000+0  59364-3 0  9996
2 64052  97.3854 128.4218 0002877 184.3482 175.7729 15.21402408 42725
TIANYI F                
1 64053U 25103F   26053.96868924  .00004807  00000+0  23912-3 0  9995
2 64053  97.3908 128.1027 0003093 177.7027 182.4222 15.18080170 42719
QPS-SAR-10 (WADATSUMI-I)
1 64055U 25104A   26053.82138924  .00006534  00000+0  52195-3 0  9997
2 64055  42.0035 189.2411 0012582 308.4343  51.5353 15.00604466 42241
TIANQI-16               
1 64058U 25105A   26053.73398938  .00000132  00000+0  17865-3 0  9997
2 64058  44.9832 171.5760 0011956 199.0092 161.0296 13.99106545 39161
TIANQI-17               
1 64059U 25105B   26053.75226945  .00000115  00000+0  16722-3 0  9990
2 64059  44.9792 170.8576 0011248 202.2325 157.8021 13.99107494 39178
TIANQI-18               
1 64060U 25105C   26053.78682945  .00000118  00000+0  16908-3 0  9990
2 64060  44.9839 171.1645 0011387 209.9850 150.0331 13.99088565 39170
TIANQI-20               
1 64061U 25105D   26053.83972349  .00000119  00000+0  17007-3 0  9999
2 64061  44.9845 170.7492 0010774 204.0576 155.9754 13.99091972 39194
CHINASAT 3B             
1 64062U 25106A   26053.91920998 -.00000042  00000+0  00000+0 0  9990
2 64062   0.0187 127.0711 0002553 179.4588 344.4925  1.00271348  2911
STARLINK-11741 [DTC]    
1 64064U 25107A   26053.75792915  .00275335  00000+0  20715-2 0  9997
2 64064  42.9998 188.7786 0000987 287.1846  72.8914 15.70925710 44947
STARLINK-11709 [DTC]    
1 64065U 25107B   26053.80026550  .00307502  00000+0  23006-2 0  9997
2 64065  42.9992 188.2232 0002911 274.5241  85.5294 15.70960296 44952
STARLINK-11737 [DTC]    
1 64066U 25107C   26053.65717706  .00347801  00000+0  25942-2 0  9998
2 64066  42.9994 188.8611 0000826 169.3312 190.7573 15.70912333 44931
STARLINK-11726 [DTC]    
1 64067U 25107D   26053.91668981  .00121088  00000+0  93529-3 0  9992
2 64067  42.9999 187.1492 0001767 279.7182 169.8222 15.70793395  5987
STARLINK-11700 [DTC]    
1 64068U 25107E   26053.74822034  .00388785  00000+0  28772-2 0  9991
2 64068  42.9990 188.6992 0001196 314.7067  45.3703 15.70977717 44941
STARLINK-11649 [DTC]    
1 64069U 25107F   26053.76323861  .00243915  00000+0  18432-2 0  9995
2 64069  42.9990 188.8195 0001251 320.5573  39.5203 15.70916082 44946
STARLINK-11713 [DTC]    
1 64070U 25107G   26053.73137911  .00245343  00000+0  18547-2 0  9997
2 64070  43.0016 188.5620 0001381 293.1440  66.9282 15.70903558 44946
STARLINK-11719 [DTC]    
1 64071U 25107H   26053.81088549  .00217280  00000+0  16466-2 0  9996
2 64071  42.9993 188.3067 0001455 260.8437  99.2266 15.70931577 44955
